BEIDOU-2 IGSO-1 (C06)   
1 36828U 10036A   23116.61011563 -.00000107  00000+0  00000+0 0  9990
2 36828  54.2071 173.3709 0035515 191.2551 176.8329  1.00260447 46720
BEIDOU-2 G4 (C04)       
1 37210U 10057A   23116.85300841 -.00000114  00000+0  00000+0 0  9993
2 37210   0.9118  51.6470 0000567 158.6445 111.3649  1.00272581 45772
BEIDOU-2 IGSO-2 (C07)   
1 37256U 10068A   23116.86524310 -.00000191  00000+0  00000+0 0  9990
2 37256  49.6457 285.8777 0024403 200.3419 148.3981  1.00268244 45286
BEIDOU-2 IGSO-3 (C08)   
1 37384U 11013A   23116.83862362 -.00000185  00000+0  00000+0 0  9995
2 37384  60.7520  51.1686 0022378 186.2066  26.3543  1.00272009 44164
BEIDOU-2 IGSO-4 (C09)   
1 37763U 11038A   23116.66059733 -.00000059  00000+0  00000+0 0  9994
2 37763  54.4847 175.8899 0108475 228.8486 140.9466  1.00258919 43147
BEIDOU-2 IGSO-5 (C10)   
1 37948U 11073A   23116.81842006 -.00000139  00000+0  00000+0 0  9997
2 37948  49.7679 285.5349 0086233 218.5896 100.1938  1.00262304 41894
BEIDOU-2 G5 (C05)       
1 38091U 12008A   23116.93729933  .00000055  00000+0  00000+0 0  9998
2 38091   1.4149  65.0591 0005919 266.6495 279.1806  1.00272427 40978
BEIDOU-2 M3 (C11)       
1 38250U 12018A   23116.54359744 -.00000095  00000+0  00000+0 0  9997
2 38250  56.5761 343.2045 0021025 262.5337 340.3338  1.86231233 74913
BEIDOU-2 M4 (C12)       
1 38251U 12018B   23116.47648980 -.00000095  00000+0  00000+0 0  9993
2 38251  56.4894 342.5098 0012051 268.1917 334.8567  1.86234253 74912
BEIDOU-2 M6 (C14)       
1 38775U 12050B   23116.61681591  .00000029  00000+0  00000+0 0  9997
2 38775  55.6011 101.1525 0014953 323.7459 208.1835  1.86231210 72291
BEIDOU-2 G6 (C02)       
1 38953U 12059A   23116.85494662 -.00000178  00000+0  00000+0 0  9997
2 38953   1.7053  82.3777 0011222 308.6951 215.3730  1.00273590 38403
BEIDOU-3S IGSO-1S (C31) 
1 40549U 15019A   23116.88617439 -.00000162  00000+0  00000+0 0  9995
2 40549  51.3353 309.0949 0036691 191.1970 129.2936  1.00285853 29578
BEIDOU-3S M2S (C57)     
1 40748U 15037A   23116.51053340 -.00000094  00000+0  00000+0 0  9995
2 40748  55.7326 341.1837 0005541  27.0686 147.7891  1.86233335 52743
BEIDOU-3S M1S (C58)     
1 40749U 15037B   23116.56308182 -.00000094  00000+0  00000+0 0  9998
2 40749  55.7367 341.1727 0005784 351.2297 352.7922  1.86232986 52739
BEIDOU-3S IGSO-2S (C56) 
1 40938U 15053A   23116.85944912 -.00000130  00000+0  00000+0 0  9996
2 40938  51.0140 272.2519 0046203 192.2895 155.5416  1.00267421 27847
BEIDOU-2 IGSO-6 (C13)   
1 41434U 16021A   23116.84280360 -.00000158  00000+0  00000+0 0  9993
2 41434  58.5637  49.6013 0047072 226.2708 337.2234  1.00264673 25978
BEIDOU-2 G7 (C03)       
1 41586U 16037A   23116.86421372 -.00000356  00000+0  00000+0 0  9990
2 41586   1.5743  65.7830 0009200 348.2220 222.2499  1.00274957 25278
BEIDOU-3 M1 (C19)       
1 43001U 17069A   23116.31010932  .00000026  00000+0  00000+0 0  9999
2 43001  55.7529 101.2048 0012702 294.6288 188.1815  1.86231561 37229
BEIDOU-3 M2 (C20)       
1 43002U 17069B   23116.34215913  .00000026  00000+0  00000+0 0  9999
2 43002  55.7526 101.2395 0010372 311.3630 235.5986  1.86231202 37218
BEIDOU-3 M7 (C27)       
1 43107U 18003A   23116.08887688 -.00000098  00000+0  00000+0 0  9999
2 43107  55.1880 341.9771 0005564  54.2147 129.6351  1.86232415 35972
BEIDOU-3 M8 (C28)       
1 43108U 18003B   23116.59477507 -.00000096  00000+0  00000+0 0  9999
2 43108  55.1823 341.9479 0002369 279.7032 285.4688  1.86230876 35986
BEIDOU-3 M4 (C22)       
1 43207U 18018A   23116.19469678  .00000025  00000+0  00000+0 0  9992
2 43207  55.7115 101.3119 0007264 327.4022  32.5398  1.86231441 35364
BEIDOU-3 M3 (C21)       
1 43208U 18018B   23116.26127049  .00000025  00000+0  00000+0 0  9994
2 43208  55.7107 101.3133 0010430 302.5293  57.3569  1.86231461 35362
BEIDOU-3 M9 (C29)       
1 43245U 18029A   23116.75118653 -.00000092  00000+0  00000+0 0  9997
2 43245  55.0881 339.6994 0001196  16.5686 162.0056  1.86232547 34521
BEIDOU-3 M10 (C30)      
1 43246U 18029B   23116.93780979 -.00000091  00000+0  10000-3 0  9998
2 43246  55.0842 339.7219 0005017  10.3216 340.1561  1.86232751 34513
BEIDOU-2 IGSO-7 (C16)   
1 43539U 18057A   23116.56855130 -.00000113  00000+0  00000+0 0  9995
2 43539  55.1006 172.9791 0059978 230.1486 128.4141  1.00270872 17647
BEIDOU-3 M5 (C23)       
1 43581U 18062A   23116.71045392 -.00000026  00000+0  00000+0 0  9999
2 43581  54.1995 221.3709 0002374 279.1805 130.7620  1.86231923 32265
BEIDOU-3 M6 (C24)       
1 43582U 18062B   23116.52496983 -.00000025  00000+0  00000+0 0  9994
2 43582  54.1993 221.3665 0004877  22.0866 354.5361  1.86229472 32261
BEIDOU-3 M12 (C26)      
1 43602U 18067A   23115.99697613 -.00000020  00000+0  00000+0 0  9990
2 43602  54.2856 220.0277 0007089  20.6191  43.7834  1.86231706 31748
BEIDOU-3 M11 (C25)      
1 43603U 18067B   23116.64470953 -.00000026  00000+0  00000+0 0  9996
2 43603  54.2824 219.9718 0004017  12.1219  36.8542  1.86231579 31776
BEIDOU-3 M13 (C32)      
1 43622U 18072A   23115.63723192  .00000018  00000+0  00000+0 0  9997
2 43622  55.6803 100.8745 0009156 291.1500 190.5172  1.86231498 31269
BEIDOU-3 M14 (C33)      
1 43623U 18072B   23116.72318721  .00000030  00000+0  00000+0 0  9991
2 43623  55.6827 100.8310 0006789 308.8067 271.1790  1.86231481 31283
BEIDOU-3 M16 (C35)      
1 43647U 18078A   23116.82383223 -.00000092  00000+0  10000-3 0  9997
2 43647  54.9839 339.8302 0008452  13.7182 167.0680  1.86227225 30795
BEIDOU-3 M15 (C34)      
1 43648U 18078B   23116.42341074 -.00000094  00000+0  00000+0 0  9999
2 43648  54.9795 339.8483 0005456  24.2996 158.1166  1.86232166 30800
BEIDOU-3 G1 (C59)       
1 43683U 18085A   23116.84899883 -.00000279  00000+0  00000+0 0  9993
2 43683   1.2447 134.6255 0004237 308.2268 217.4609  1.00269730 16559
BEIDOU-3 M17 (C36)      
1 43706U 18093A   23116.30042293 -.00000023  00000+0  00000+0 0  9991
2 43706  54.2815 221.2937 0008490 276.3371  83.5811  1.86232106 30168
BEIDOU-3 M18 (C37)      
1 43707U 18093B   23116.70136571 -.00000026  00000+0  00000+0 0  9992
2 43707  54.2831 221.2699 0006445 311.7117  47.9715  1.86229727 30153
BEIDOU-3 IGSO-1 (C38)   
1 44204U 19023A   23116.83350516 -.00000219  00000+0  00000+0 0  9994
2 44204  57.0288  49.6234 0018969 207.6607  16.6371  1.00268254 14855
BEIDOU-2 G8 (C01)       
1 44231U 19027A   23116.84987049 -.00000248  00000+0  00000+0 0  9998
2 44231   1.6326  81.0058 0004287 133.6656  90.4286  1.00270720 14561
BEIDOU-3 IGSO-2 (C39)   
1 44337U 19035A   23116.55735925 -.00000113  00000+0  00000+0 0  9997
2 44337  55.1376 168.9431 0030477 200.2279 164.5692  1.00261725 14197
BEIDOU-3 M24 (C46)      
1 44542U 19061A   23116.23750501 -.00000022  00000+0  00000+0 0  9995
2 44542  54.5084 221.4996 0007246 348.7954  11.2029  1.86231193 24419
BEIDOU-3 M23 (C45)      
1 44543U 19061B   23116.44596564 -.00000024  00000+0  00000+0 0  9998
2 44543  54.5074 221.4613 0004353 341.5722  69.9020  1.86231612 24412
BEIDOU-3 IGSO-3 (C40)   
1 44709U 19073A   23116.86894676 -.00000166  00000+0  00000+0 0  9993
2 44709  56.7530 293.1124 0030222 176.9743 176.4119  1.00267386 12937
BEIDOU-3 M22 (C44)      
1 44793U 19078A   23116.35594971 -.00000095  00000+0  10000-3 0  9996
2 44793  54.8324 339.8295 0007447  20.4478 162.9364  1.86232133 23275
BEIDOU-3 M21 (C43)      
1 44794U 19078B   23116.60698245 -.00000093  00000+0  00000+0 0  9997
2 44794  54.8066 339.8056 0005265  17.5295 246.3867  1.86232599 23275
BEIDOU-3 M19 (C41)      
1 44864U 19090A   23116.70873737  .00000030  00000+0  00000+0 0  9991
2 44864  55.6147 101.0330 0019673 276.5298 249.6780  1.86231776 22864
BEIDOU-3 M20 (C42)      
1 44865U 19090B   23116.57923207  .00000028  00000+0  00000+0 0  9992
2 44865  55.6174 101.0696 0017726 288.5041 240.6903  1.86231711 22830
BEIDOU-3 G2 (C60)       
1 45344U 20017A   23116.85296343 -.00000143  00000+0  00000+0 0  9990
2 45344   1.9994   9.1736 0002106  67.6196 164.8991  1.00272134 11756
BEIDOU-3 G3 (C61)       
1 45807U 20040A   23116.86421377 -.00000357  00000+0  00000+0 0  9995
2 45807   0.7918 322.8175 0006547 327.8520 345.5856  1.00276269 10569
